NORAD_CAT_ID,OBJECT_NAME,OBJECT_TYPE,EPOCH,MEAN_MOTION,ECCENTRICITY,INCLINATION,RA_OF_ASC_NODE,ARG_OF_PERICENTER,MEAN_ANOMALY,BSTAR,MEAN_MOTION_DOT,MEAN_MOTION_DDOT,TLE_LINE0,TLE_LINE1,TLE_LINE2,SEMIMAJOR_AXIS,PERIOD,APOGEE,PERIGEE,DECAYED
53713.0,STARLINK-4698,PAYLOAD,2022-09-23 14:00:01,15.73217707,0.0001408,53.2145,181.6207,134.55700000000002,288.5425,-4.9756e-05,-7.602e-05,0.0,0 STARLINK-4698,1 53713U 22107P   22266.58334491 -.00007602  00000-0 -49756-4 0  9998,2 53713  53.2145 181.6207 0001408 134.5570 288.5425 15.73217707  1302,6727.845,91.532,350.657,348.76199999999994,0.0
53713.0,STARLINK-4698,PAYLOAD,2022-09-23 20:00:01,15.73205121,0.0001437,53.2147,180.3837,135.0123,264.8664,0.00016272,0.00022282,0.0,0 STARLINK-4698,1 53713U 22107P   22266.83335648  .00022282  00000-0  16272-3 0  9996,2 53713  53.2147 180.3837 0001437 135.0123 264.8664 15.73205121  3076,6727.880999999999,91.533,350.712,348.779,0.0
53713.0,STARLINK-4698,PAYLOAD,2022-09-24 14:00:01,15.73232824,0.0001534,53.214,176.6718,134.208,195.8505,0.00013585,0.00018514,0.0,0 STARLINK-4698,1 53713U 22107P   22267.58335648  .00018514  00000-0  13585-3 0  9996,2 53713  53.2140 176.6718 0001534 134.2080 195.8505 15.73232824  1307,6727.802,91.531,350.699,348.635,0.0
53713.0,STARLINK-4698,PAYLOAD,2022-09-24 22:00:00,15.73252293,0.0001551,53.2143,175.0233,132.779,286.1919,-0.00062162,-0.00087159,0.0,0 STARLINK-4698,1 53713U 22107P   22267.91667824 -.00087159  00000-0 -62162-3 0  9995,2 53713  53.2143 175.0233 0001551 132.7790 286.1919 15.73252293  1300,6727.746,91.53,350.655,348.5680000000001,0.0
53713.0,STARLINK-4698,PAYLOAD,2022-09-25 14:00:01,15.72949524,0.0001399,53.2165,171.7227,123.0604,113.8394,0.0019833999999999,0.00284307,0.0,0 STARLINK-4698,1 53713U 22107P   22268.58334491  .00284307  00000-0  19834-2 0  9999,2 53713  53.2165 171.7227 0001399 123.0604 113.8394 15.72949524  1309,6728.609,91.548,351.416,349.533,0.0
53713.0,STARLINK-4698,PAYLOAD,2022-09-25 22:00:01,15.73171731,0.0001471,53.215,170.0749,132.5378,193.2664,2.8732e-05,3.409e-05,0.0,0 STARLINK-4698,1 53713U 22107P   22268.91668981  .00003409  00000-0  28732-4 0  9991,2 53713  53.2150 170.0749 0001471 132.5378 193.2664 15.73171731  3399,6727.976,91.535,350.83,348.851,0.0
53713.0,STARLINK-4698,PAYLOAD,2022-09-26 10:00:00,15.73235134,0.0001658,53.2139,167.6003,128.6995,150.3853,-0.00033043,-0.00046808,0.0,0 STARLINK-4698,1 53713U 22107P   22269.41667824 -.00046808  00000-0 -33043-3 0  9994,2 53713  53.2139 167.6003 0001658 128.6995 150.3853 15.73235134  3470,6727.795,91.531,350.775,348.545,0.0
53713.0,STARLINK-4698,PAYLOAD,2022-09-26 14:00:01,15.73217502,0.0001656,53.2137,166.7747,136.0379,7.539,2.9723e-07,-5.79e-06,0.0,0 STARLINK-4698,1 53713U 22107P   22269.58334491 -.00000579  00000-0  29723-6 0  9990,2 53713  53.2137 166.7747 0001656 136.0379   7.5390 15.73217502  1308,6727.845,91.532,350.824,348.596,0.0
53713.0,STARLINK-4698,PAYLOAD,2022-09-26 22:00:00,15.73236238,0.0001462,53.2139,165.1266,138.1821,94.3239,-0.00059309,-0.00083168,0.0,0 STARLINK-4698,1 53713U 22107P   22269.91667824 -.00083168  00000-0 -59309-3 0  9992,2 53713  53.2139 165.1266 0001462 138.1821  94.3239 15.73236238  1302,6727.792,91.531,350.64,348.673,0.0
53713.0,STARLINK-4698,PAYLOAD,2022-09-27 06:00:00,15.73203082,0.0001219,53.2137,163.4775,139.7386,181.6995,-0.0002117,-0.00030227,0.0,0 STARLINK-4698,1 53713U 22107P   22270.25001157 -.00030227  00000-0 -21170-3 0  9995,2 53713  53.2137 163.4775 0001219 139.7386 181.6995 15.73203082  3604,6727.886,91.533,350.57199999999995,348.931,0.0
53713.0,STARLINK-4698,PAYLOAD,2022-09-27 14:00:01,15.73137708,0.000153,53.214,161.8259,141.4025,268.9648,0.00078566,0.00110811,0.0,0 STARLINK-4698,1 53713U 22107P   22270.58334491  .00110811  00000-0  78566-3 0  9998,2 53713  53.2140 161.8259 0001530 141.4025 268.9648 15.73137708  1303,6728.073,91.537,350.967,348.908,0.0
53713.0,STARLINK-4698,PAYLOAD,2022-09-27 22:00:01,15.73234195,0.0001406,53.2138,160.1777,136.8398,2.5106,0.00034385,0.00047984,0.0,0 STARLINK-4698,1 53713U 22107P   22270.91668981  .00047984  00000-0  34385-3 0  9990,2 53713  53.2138 160.1777 0001406 136.8398   2.5106 15.73234195  3716,6727.7980000000025,91.531,350.6090000000001,348.717,0.0
53713.0,STARLINK-4698,PAYLOAD,2022-09-28 14:00:01,15.73286728,0.0001547,53.2132,156.8768,145.0912,172.2358,-0.00042519,-0.00060091,0.0,0 STARLINK-4698,1 53713U 22107P   22271.58334491 -.00060091  00000-0 -42519-3 0  9994,2 53713  53.2132 156.8768 0001547 145.0912 172.2358 15.73286728  1308,6727.648,91.528,350.55400000000014,348.472,0.0
53713.0,STARLINK-4698,PAYLOAD,2022-09-28 22:00:00,15.73239726,0.0001462,53.2133,155.2289,136.3456,269.9346,-0.0013627,-0.00187979,0.0,0 STARLINK-4698,1 53713U 22107P   22271.91667824 -.00187979  00000-0 -13627-2 0  9992,2 53713  53.2133 155.2289 0001462 136.3456 269.9346 15.73239726  1309,6727.781999999997,91.531,350.631,348.663,0.0
53713.0,STARLINK-4698,PAYLOAD,2022-09-29 06:00:00,15.73091625,0.0001614,53.2132,153.5793,128.6429,6.5362,0.00029257,0.00040449,0.0,0 STARLINK-4698,1 53713U 22107P   22272.25001157  .00040449  00000-0  29257-3 0  9996,2 53713  53.2132 153.5793 0001614 128.6429   6.5362 15.73091625  3929,6728.204000000002,91.539,351.155,348.983,0.0
53713.0,STARLINK-4698,PAYLOAD,2022-09-29 14:00:01,15.73099131,0.0001747,53.2134,151.928,135.313,88.6807,0.00073151,0.00102863,0.0,0 STARLINK-4698,1 53713U 22107P   22272.58334491  .00102863  00000-0  73151-3 0  9993,2 53713  53.2134 151.9280 0001747 135.3130  88.6807 15.73099131  1300,6728.183000000001,91.539,351.223,348.872,0.0
53713.0,STARLINK-4698,PAYLOAD,2022-09-29 20:00:01,15.73175064,0.0001688,53.2136,150.6921,132.1409,68.5581,0.00025426,0.00035176,0.0,0 STARLINK-4698,1 53713U 22107P   22272.83335648  .00035176  00000-0  25426-3 0  9990,2 53713  53.2136 150.6921 0001688 132.1409  68.5581 15.73175064  4015,6727.965999999999,91.535,350.967,348.696,0.0
53713.0,STARLINK-4698,PAYLOAD,2022-09-29 22:00:00,15.73173376,0.0001631999999999,53.2133,150.2803,130.0505,182.797,0.00029294,0.00040645,0.0,0 STARLINK-4698,1 53713U 22107P   22272.91667824  .00040645  00000-0  29294-3 0  9997,2 53713  53.2133 150.2803 0001632 130.0505 182.7970 15.73173376  1304,6727.971,91.535,350.934,348.73800000000006,0.0
53713.0,STARLINK-4698,PAYLOAD,2022-09-30 14:00:01,15.73228317,0.0001658,53.213,146.9793,143.0092,347.7179,-0.00029112,-0.00041328,0.0,0 STARLINK-4698,1 53713U 22107P   22273.58334491 -.00041328  00000-0 -29112-3 0  9992,2 53713  53.2130 146.9793 0001658 143.0092 347.7179 15.73228317  1304,6727.814,91.532,350.795,348.564,0.0
53713.0,STARLINK-4698,PAYLOAD,2022-09-30 22:00:00,15.73190937,0.0001511,53.2131,145.3316,136.5654,83.1276,0.00042355,0.0005922,0.0,0 STARLINK-4698,1 53713U 22107P   22273.91667824  .00059220  00000-0  42355-3 0  9990,2 53713  53.2131 145.3316 0001511 136.5654  83.1276 15.73190937  1303,6727.920999999999,91.534,350.80300000000005,348.769,0.0
53713.0,STARLINK-4698,PAYLOAD,2022-10-01 14:00:01,15.73228847,0.0001673,53.2136,142.0301,140.4819,257.1322,-0.00023437,-0.00033424,0.0,0 STARLINK-4698,1 53713U 22107P   22274.58334491 -.00033424  00000-0 -23437-3 0  9995,2 53713  53.2136 142.0301 0001673 140.4819 257.1322 15.73228847  1309,6727.813,91.532,350.80300000000005,348.552,0.0
53713.0,STARLINK-4698,PAYLOAD,2022-10-01 22:00:00,15.73196371,0.0001463,53.2136,140.3825,136.2749,350.2936,-0.00039808,-0.00056109,0.0,0 STARLINK-4698,1 53713U 22107P   22274.91667824 -.00056109  00000-0 -39808-3 0  9995,2 53713  53.2136 140.3825 0001463 136.2749 350.2936 15.73196371  1305,6727.906,91.533,350.755,348.786,0.0
53713.0,STARLINK-4698,PAYLOAD,2022-10-02 14:00:01,15.73163157,0.0001518,53.2136,137.0817,149.6526,154.7015,0.00077144,0.00108888,0.0,0 STARLINK-4698,1 53713U 22107P   22275.58334491  .00108888  00000-0  77144-3 0  9995,2 53713  53.2136 137.0817 0001518 149.6526 154.7015 15.73163157  1302,6728.0,91.535,350.88699999999994,348.844,0.0
53713.0,STARLINK-4698,PAYLOAD,2022-10-02 22:00:00,15.7323393,0.0001367,53.2136,135.4343,142.4603,250.8044,-0.00033155,-0.0004696,0.0,0 STARLINK-4698,1 53713U 22107P   22275.91667824 -.00046960  00000-0 -33155-3 0  9999,2 53713  53.2136 135.4343 0001367 142.4603 250.8044 15.73233930  4509,6727.7980000000025,91.531,350.583,348.744,0.0
53713.0,STARLINK-4698,PAYLOAD,2022-10-03 06:00:00,15.73266874,0.0001429,53.2138,133.7839,138.7907,343.4169,-0.0003937,-0.00055668,0.0,0 STARLINK-4698,1 53713U 22107P   22276.25001157 -.00055668  00000-0 -39370-3 0  9998,2 53713  53.2138 133.7839 0001429 138.7907 343.4169 15.73266874  4551,6727.705,91.529,350.531,348.608,0.0
53713.0,STARLINK-4698,PAYLOAD,2022-10-03 14:00:01,15.73222098,0.0001714,53.2142,132.1329,137.1248,74.0686,-4.557e-05,-7.017e-05,0.0,0 STARLINK-4698,1 53713U 22107P   22276.58334491 -.00007017  00000-0 -45570-4 0  9999,2 53713  53.2142 132.1329 0001714 137.1248  74.0686 15.73222098  1302,6727.831999999999,91.532,350.85,348.5440000000001,0.0
53713.0,STARLINK-4698,PAYLOAD,2022-10-03 22:00:00,15.73237341,0.000158,53.2142,130.4854,129.2456,170.9044,-0.00014181,-0.00020507,0.0,0 STARLINK-4698,1 53713U 22107P   22276.91667824 -.00020507  00000-0 -14181-3 0  9997,2 53713  53.2142 130.4854 0001580 129.2456 170.9044 15.73237341  4652,6727.7890000000025,91.531,350.717,348.591,0.0
53713.0,STARLINK-4698,PAYLOAD,2022-10-04 14:00:01,15.73233205,0.0001588,53.2142,127.1844,141.5543,336.541,-0.00029599,-0.00042014,0.0,0 STARLINK-4698,1 53713U 22107P   22277.58334491 -.00042014  00000-0 -29599-3 0  9998,2 53713  53.2142 127.1844 0001588 141.5543 336.5410 15.73233205  1307,6727.801,91.531,350.7340000000001,348.597,0.0
53713.0,STARLINK-4698,PAYLOAD,2022-10-04 16:00:00,15.73233002,0.0001547,53.2142,126.7725,141.3527,88.98200000000001,-0.00041903,-0.00059101,0.0,0 STARLINK-4698,1 53713U 22107P   22277.66667824 -.00059101  00000-0 -41903-3 0  9994,2 53713  53.2142 126.7725 0001547 141.3527  88.9820 15.73233002  4777,6727.801,91.531,350.707,348.625,0.0
